DELTA 2 R/B(1)          
1 20453U 90008B   26017.43988627  .00058834  00000+0  85295-3 0  9993
2 20453  35.6042 149.3887 0101769 144.5859 216.1686 15.48821787918162
COSMOS 2058             
1 20465U 90010A   26017.59275449  .00002936  00000+0  17481-3 0  9991
2 20465  82.4683  97.7614 0010664 144.3752 215.8192 15.10823696934529
SL-14 R/B               
1 20466U 90010B   26017.56156092  .00000387  00000+0  43942-4 0  9991
2 20466  82.5045 315.4066 0021341 106.8993 253.4565 14.83511021920902
SL-14 R/B               
1 20511U 90018B   26017.12497100  .00000349  00000+0  40920-4 0  9991
2 20511  82.5211 271.2951 0014892 261.3835  98.5692 14.82087286914941
HST                     
1 20580U 90037B   26017.31546324  .00006983  00000+0  23622-3 0  9991
2 20580  28.4678  30.2374 0001747 254.1050 105.9352 15.28565513765449
SL-16 R/B               
1 20625U 90046B   26017.51624290 -.00000033  00000+0  74601-5 0  9998
2 20625  70.9995  45.3859 0013579  12.0761 348.0684 14.15007895841154
COSMOS 2084             
1 20663U 90055A   26017.64329661  .00002662  00000+0  19823-3 0  9990
2 20663  62.7899 149.6337 0025617 180.1474 179.9623 15.05267259928636
SL-6 R/B(2)             
1 20666U 90055D   26017.55714762  .00001474  00000+0  12258-3 0  9998
2 20666  62.7822  67.6954 0017323 329.9620  30.0484 15.03272852930504
SL-8 R/B                
1 20775U 90078B   26017.27189683  .00016594  00000+0  50143-3 0  9995
2 20775  82.9064 297.4798 0368846 186.2932 173.3595 14.87143968801658
SL-8 R/B                
1 21088U 91006B   26017.63458435 -.00000031  00000+0 -46754-4 0  9994
2 21088  82.9407 208.0113 0022523 175.2919 251.9077 13.77491899757046
OKEAN-3                 
1 21397U 91039A   26017.53673918  .00002149  00000+0  15173-3 0  9997
2 21397  82.5149  26.3861 0015762 138.9109 221.3308 15.04357611857340
COSMOS 2151             
1 21422U 91042A   26017.58454063  .00001786  00000+0  14190-3 0  9997
2 21422  82.4984 132.9591 0011556 227.8238 132.2006 14.99857117855530
