CCSDS_OMM_VERS = 2.0
CREATION_DATE  = 
ORIGINATOR     = 

OBJECT_NAME    = DELTA 2 R/B(1)
OBJECT_ID      = 1990-008B
CENTER_NAME    = EARTH
REF_FRAME      = TEME
TIME_SYSTEM    = UTC
MEAN_ELEMENT_THEORY = SGP/SGP4

EPOCH          = 2026-01-17T10:33:26.173728
MEAN_MOTION    = 15.48821787
ECCENTRICITY   = .01017693
INCLINATION    = 35.6042
RA_OF_ASC_NODE = 149.3887
ARG_OF_PERICENTER = 144.5859
MEAN_ANOMALY   = 216.1686

EPHEMERIS_TYPE = 0
CLASSIFICATION_TYPE = U
NORAD_CAT_ID   = 20453
ELEMENT_SET_NO = 999
REV_AT_EPOCH   = 91816
BSTAR          = .85295051E-3
MEAN_MOTION_DOT = .58834E-3
MEAN_MOTION_DDOT = 0

CCSDS_OMM_VERS = 2.0
CREATION_DATE  = 
ORIGINATOR     = 

OBJECT_NAME    = COSMOS 2058
OBJECT_ID      = 1990-010A
CENTER_NAME    = EARTH
REF_FRAME      = TEME
TIME_SYSTEM    = UTC
MEAN_ELEMENT_THEORY = SGP/SGP4

EPOCH          = 2026-01-17T14:13:33.987936
MEAN_MOTION    = 15.10823696
ECCENTRICITY   = .00106648
INCLINATION    = 82.4683
RA_OF_ASC_NODE = 97.7614
ARG_OF_PERICENTER = 144.3752
MEAN_ANOMALY   = 215.8192

EPHEMERIS_TYPE = 0
CLASSIFICATION_TYPE = U
NORAD_CAT_ID   = 20465
ELEMENT_SET_NO = 999
REV_AT_EPOCH   = 93452
BSTAR          = .17480626E-3
MEAN_MOTION_DOT = .2936E-4
MEAN_MOTION_DDOT = 0

CCSDS_OMM_VERS = 2.0
CREATION_DATE  = 
ORIGINATOR     = 

OBJECT_NAME    = SL-14 R/B
OBJECT_ID      = 1990-010B
CENTER_NAME    = EARTH
REF_FRAME      = TEME
TIME_SYSTEM    = UTC
MEAN_ELEMENT_THEORY = SGP/SGP4

EPOCH          = 2026-01-17T13:28:38.863488
MEAN_MOTION    = 14.83511021
ECCENTRICITY   = .00213412
INCLINATION    = 82.5045
RA_OF_ASC_NODE = 315.4066
ARG_OF_PERICENTER = 106.8993
MEAN_ANOMALY   = 253.4565

EPHEMERIS_TYPE = 0
CLASSIFICATION_TYPE = U
NORAD_CAT_ID   = 20466
ELEMENT_SET_NO = 999
REV_AT_EPOCH   = 92090
BSTAR          = .43941701E-4
MEAN_MOTION_DOT = .387E-5
MEAN_MOTION_DDOT = 0

CCSDS_OMM_VERS = 2.0
CREATION_DATE  = 
ORIGINATOR     = 

OBJECT_NAME    = SL-14 R/B
OBJECT_ID      = 1990-018B
CENTER_NAME    = EARTH
REF_FRAME      = TEME
TIME_SYSTEM    = UTC
MEAN_ELEMENT_THEORY = SGP/SGP4

EPOCH          = 2026-01-17T02:59:57.494400
MEAN_MOTION    = 14.82087286
ECCENTRICITY   = .00148925
INCLINATION    = 82.5211
RA_OF_ASC_NODE = 271.2951
ARG_OF_PERICENTER = 261.3835
MEAN_ANOMALY   = 98.5692

EPHEMERIS_TYPE = 0
CLASSIFICATION_TYPE = U
NORAD_CAT_ID   = 20511
ELEMENT_SET_NO = 999
REV_AT_EPOCH   = 91494
BSTAR          = .40920174E-4
MEAN_MOTION_DOT = .349E-5
MEAN_MOTION_DDOT = 0

CCSDS_OMM_VERS = 2.0
CREATION_DATE  = 
ORIGINATOR     = 

OBJECT_NAME    = HST
OBJECT_ID      = 1990-037B
CENTER_NAME    = EARTH
REF_FRAME      = TEME
TIME_SYSTEM    = UTC
MEAN_ELEMENT_THEORY = SGP/SGP4

EPOCH          = 2026-01-17T07:34:16.023936
MEAN_MOTION    = 15.28565513
ECCENTRICITY   = .00017475
INCLINATION    = 28.4678
RA_OF_ASC_NODE = 30.2374
ARG_OF_PERICENTER = 254.1050
MEAN_ANOMALY   = 105.9352

EPHEMERIS_TYPE = 0
CLASSIFICATION_TYPE = U
NORAD_CAT_ID   = 20580
ELEMENT_SET_NO = 999
REV_AT_EPOCH   = 76544
BSTAR          = .23621946E-3
MEAN_MOTION_DOT = .6983E-4
MEAN_MOTION_DDOT = 0

CCSDS_OMM_VERS = 2.0
CREATION_DATE  = 
ORIGINATOR     = 

OBJECT_NAME    = SL-16 R/B
OBJECT_ID      = 1990-046B
CENTER_NAME    = EARTH
REF_FRAME      = TEME
TIME_SYSTEM    = UTC
MEAN_ELEMENT_THEORY = SGP/SGP4

EPOCH          = 2026-01-17T12:23:23.386560
MEAN_MOTION    = 14.15007895
ECCENTRICITY   = .0013579
INCLINATION    = 70.9995
RA_OF_ASC_NODE = 45.3859
ARG_OF_PERICENTER = 12.0761
MEAN_ANOMALY   = 348.0684

EPHEMERIS_TYPE = 0
CLASSIFICATION_TYPE = U
NORAD_CAT_ID   = 20625
ELEMENT_SET_NO = 999
REV_AT_EPOCH   = 84115
BSTAR          = .7460111E-5
MEAN_MOTION_DOT = -.33E-6
MEAN_MOTION_DDOT = 0

CCSDS_OMM_VERS = 2.0
CREATION_DATE  = 
ORIGINATOR     = 

OBJECT_NAME    = COSMOS 2084
OBJECT_ID      = 1990-055A
CENTER_NAME    = EARTH
REF_FRAME      = TEME
TIME_SYSTEM    = UTC
MEAN_ELEMENT_THEORY = SGP/SGP4

EPOCH          = 2026-01-17T15:26:20.827104
MEAN_MOTION    = 15.05267259
ECCENTRICITY   = .00256179
INCLINATION    = 62.7899
RA_OF_ASC_NODE = 149.6337
ARG_OF_PERICENTER = 180.1474
MEAN_ANOMALY   = 179.9623

EPHEMERIS_TYPE = 0
CLASSIFICATION_TYPE = U
NORAD_CAT_ID   = 20663
ELEMENT_SET_NO = 999
REV_AT_EPOCH   = 92863
BSTAR          = .19823185E-3
MEAN_MOTION_DOT = .2662E-4
MEAN_MOTION_DDOT = 0

CCSDS_OMM_VERS = 2.0
CREATION_DATE  = 
ORIGINATOR     = 

OBJECT_NAME    = SL-6 R/B(2)
OBJECT_ID      = 1990-055D
CENTER_NAME    = EARTH
REF_FRAME      = TEME
TIME_SYSTEM    = UTC
MEAN_ELEMENT_THEORY = SGP/SGP4

EPOCH          = 2026-01-17T13:22:17.554368
MEAN_MOTION    = 15.03272852
ECCENTRICITY   = .00173234
INCLINATION    = 62.7822
RA_OF_ASC_NODE = 67.6954
ARG_OF_PERICENTER = 329.9620
MEAN_ANOMALY   = 30.0484

EPHEMERIS_TYPE = 0
CLASSIFICATION_TYPE = U
NORAD_CAT_ID   = 20666
ELEMENT_SET_NO = 999
REV_AT_EPOCH   = 93050
BSTAR          = .12257902E-3
MEAN_MOTION_DOT = .1474E-4
MEAN_MOTION_DDOT = 0

CCSDS_OMM_VERS = 2.0
CREATION_DATE  = 
ORIGINATOR     = 

OBJECT_NAME    = SL-8 R/B
OBJECT_ID      = 1990-078B
CENTER_NAME    = EARTH
REF_FRAME      = TEME
TIME_SYSTEM    = UTC
MEAN_ELEMENT_THEORY = SGP/SGP4

EPOCH          = 2026-01-17T06:31:31.886112
MEAN_MOTION    = 14.87143968
ECCENTRICITY   = .03688463
INCLINATION    = 82.9064
RA_OF_ASC_NODE = 297.4798
ARG_OF_PERICENTER = 186.2932
MEAN_ANOMALY   = 173.3595

EPHEMERIS_TYPE = 0
CLASSIFICATION_TYPE = U
NORAD_CAT_ID   = 20775
ELEMENT_SET_NO = 999
REV_AT_EPOCH   = 80165
BSTAR          = .50143124E-3
MEAN_MOTION_DOT = .16594E-3
MEAN_MOTION_DDOT = 0

CCSDS_OMM_VERS = 2.0
CREATION_DATE  = 
ORIGINATOR     = 

OBJECT_NAME    = SL-8 R/B
OBJECT_ID      = 1991-006B
CENTER_NAME    = EARTH
REF_FRAME      = TEME
TIME_SYSTEM    = UTC
MEAN_ELEMENT_THEORY = SGP/SGP4

EPOCH          = 2026-01-17T15:13:48.087840
MEAN_MOTION    = 13.77491899
ECCENTRICITY   = .0022523
INCLINATION    = 82.9407
RA_OF_ASC_NODE = 208.0113
ARG_OF_PERICENTER = 175.2919
MEAN_ANOMALY   = 251.9077

EPHEMERIS_TYPE = 0
CLASSIFICATION_TYPE = U
NORAD_CAT_ID   = 21088
ELEMENT_SET_NO = 999
REV_AT_EPOCH   = 75704
BSTAR          = -.46754324E-4
MEAN_MOTION_DOT = -.31E-6
MEAN_MOTION_DDOT = 0

CCSDS_OMM_VERS = 2.0
CREATION_DATE  = 
ORIGINATOR     = 

OBJECT_NAME    = OKEAN-3
OBJECT_ID      = 1991-039A
CENTER_NAME    = EARTH
REF_FRAME      = TEME
TIME_SYSTEM    = UTC
MEAN_ELEMENT_THEORY = SGP/SGP4

EPOCH          = 2026-01-17T12:52:54.265152
MEAN_MOTION    = 15.04357611
ECCENTRICITY   = .00157622
INCLINATION    = 82.5149
RA_OF_ASC_NODE = 26.3861
ARG_OF_PERICENTER = 138.9109
MEAN_ANOMALY   = 221.3308

EPHEMERIS_TYPE = 0
CLASSIFICATION_TYPE = U
NORAD_CAT_ID   = 21397
ELEMENT_SET_NO = 999
REV_AT_EPOCH   = 85734
BSTAR          = .15173398E-3
MEAN_MOTION_DOT = .2149E-4
MEAN_MOTION_DDOT = 0

CCSDS_OMM_VERS = 2.0
CREATION_DATE  = 
ORIGINATOR     = 

OBJECT_NAME    = COSMOS 2151
OBJECT_ID      = 1991-042A
CENTER_NAME    = EARTH
REF_FRAME      = TEME
TIME_SYSTEM    = UTC
MEAN_ELEMENT_THEORY = SGP/SGP4

EPOCH          = 2026-01-17T14:01:44.310432
MEAN_MOTION    = 14.99857117
ECCENTRICITY   = .00115563
INCLINATION    = 82.4984
RA_OF_ASC_NODE = 132.9591
ARG_OF_PERICENTER = 227.8238
MEAN_ANOMALY   = 132.2006

EPHEMERIS_TYPE = 0
CLASSIFICATION_TYPE = U
NORAD_CAT_ID   = 21422
ELEMENT_SET_NO = 999
REV_AT_EPOCH   = 85553
BSTAR          = .14190078E-3
MEAN_MOTION_DOT = .1786E-4
MEAN_MOTION_DDOT = 0

